ONEWEB-0456             
1 51646U 22012AA  23312.01225685 -.00000339  00000+0 -10067-2 0  9991
2 51646  87.8923 225.3500 0001393  65.2033 294.9239 13.10370377 85938
ONEWEB-0457             
1 51647U 22012AB  23311.53136660  .00000588  00000+0  16483-2 0  9994
2 51647  87.8924 225.4483 0002105  79.7930 280.3435 13.10372660 84583
ONEWEB-0458             
1 51648U 22012AC  23312.31605514  .00008949  00000+0  25593-1 0  9991
2 51648  87.8918 225.3060 0002309  71.0445 289.0933 13.10327183 85949
ONEWEB-0461             
1 51649U 22012AD  23311.76018042  .00000118  00000+0  27142-3 0  9998
2 51649  87.9242 195.1741 0001824  78.2338 281.8998 13.17647117 89755
ONEWEB-0463             
1 51650U 22012AE  23311.74331460  .00000116  00000+0  26445-3 0  9993
2 51650  87.9245 195.2135 0001746  80.0589 280.0739 13.17649313 89541
ONEWEB-0464             
1 51651U 22012AF  23311.47287577 -.00000134  00000+0 -42095-3 0  9994
2 51651  87.8923 225.4617 0001453  59.6893 300.4378 13.10372776 84551
ONEWEB-0468             
1 51652U 22012AG  23311.78479011 -.00000501  00000+0 -14716-2 0  9991
2 51652  87.8923 225.3930 0001777  68.9722 291.1595 13.10370087 85867
ONEWEB-0473             
1 51653U 22012AH  23312.15196898  .00001537  00000+0  43671-2 0  9993
2 51653  87.8923 225.3241 0002019  77.6914 282.4440 13.10365030 85924
